OBJECT_NAME,OBJECT_ID,EPOCH,MEAN_MOTION,ECCENTRICITY,INCLINATION,RA_OF_ASC_NODE,ARG_OF_PERICENTER,MEAN_ANOMALY,EPHEMERIS_TYPE,CLASSIFICATION_TYPE,NORAD_CAT_ID,ELEMENT_SET_NO,REV_AT_EPOCH,BSTAR,MEAN_MOTION_DOT,MEAN_MOTION_DDOT
ONEWEB-0522,2022-138AD,2026-06-13T21:10:35.866848,13.19724590,.00017024,87.9176,305.6152,97.6318,262.5008,0,U,54140,999,17637,.12251319E-3,.62E-6,0
ONEWEB-0523,2022-138AE,2026-06-13T20:20:27.112128,13.20770381,.00027913,87.9194,275.1057,100.6553,259.4894,0,U,54141,999,17886,-.24166695E-3,-.85E-6,0
ONEWEB-0524,2022-138AF,2026-06-13T20:05:54.652704,13.20770707,.00025326,87.9193,275.1048,118.5332,241.6057,0,U,54142,999,17886,-.26827906E-3,-.96E-6,0
ONEWEB-0525,2022-138AG,2026-06-13T21:37:52.902336,13.19725067,.00015222,87.9174,305.6192,104.8019,255.3283,0,U,54143,999,17639,-.7463356E-4,-.17E-6,0
ONEWEB-0526,2022-138AH,2026-06-13T22:25:39.009792,13.19725957,.00017577,87.9175,305.6129,102.0697,258.0633,0,U,54144,999,17637,-.11795982E-3,-.34E-6,0
ONEWEB-0529,2022-138AJ,2026-06-13T22:30:11.818656,13.19724647,.00016239,87.9166,305.6216,101.2767,258.8549,0,U,54145,999,17639,-.28973796E-4,.1E-7,0
ONEWEB-0531,2022-138AK,2026-06-13T19:46:31.776960,13.20771714,.00027961,87.9191,275.1054,106.2320,253.9121,0,U,54146,999,17886,-.13063177E-3,-.4E-6,0
ONEWEB-0535,2022-138AL,2026-06-13T21:28:47.007264,13.19724700,.00021766,87.9175,305.6143,96.1192,264.0189,0,U,54147,999,17640,-.15406765E-3,-.49E-6,0
ONEWEB-0536,2022-138AM,2026-06-13T19:27:07.282944,13.20770919,.00029193,87.9180,275.1309,110.2106,249.9341,0,U,54148,999,17885,-.22661333E-4,.4E-7,0
ONEWEB-0527,2022-166A,2026-06-13T22:00:01.999584,13.21833124,.0002061,87.9257,244.6481,100.8461,235.5908,0,U,54642,999,522,-.76150438E-1,-.31332E-3,0
ONEWEB-0528,2022-166B,2026-06-13T22:08:25.407456,13.21824811,.0001852,87.9254,244.6490,102.8218,257.3123,0,U,54643,999,17111,-.19327479E-4,.5E-7,0
ONEWEB-0539,2022-166C,2026-06-13T17:35:56.987808,13.21826484,.00019956,87.9261,244.6583,92.7561,267.3802,0,U,54644,999,17108,-.19027098E-3,-.66E-6,0
ONEWEB-0540,2022-166D,2026-06-13T17:45:49.854240,13.21826928,.00020385,87.9253,244.6873,95.1683,264.9684,0,U,54645,999,17107,-.54583283E-4,-.1E-6,0
ONEWEB-0542,2022-166E,2026-06-13T17:50:28.235040,13.21827516,.00020419,87.9263,244.6549,90.0467,270.0901,0,U,54646,999,17108,-.77244227E-4,-.19E-6,0
ONEWEB-0545,2022-166F,2026-06-13T22:26:36.235968,13.21828190,.00022024,87.9254,244.6288,85.7528,274.3858,0,U,54647,999,17107,.18922455E-3,.91E-6,0
ONEWEB-0580,2022-166G,2026-06-13T21:50:16.192032,13.21827052,.00022801,87.9253,244.6337,89.4714,270.6681,0,U,54648,999,17111,-.20185415E-3,-.7E-6,0
ONEWEB-0582,2022-166H,2026-06-13T17:23:50.366400,13.21826383,.00022162,87.9255,244.6629,87.6962,272.4426,0,U,54649,999,17106,-.978796E-6,.13E-6,0
ONEWEB-0583,2022-166J,2026-06-13T17:40:46.928928,13.21827596,.00020579,87.9252,244.6841,95.8163,264.3205,0,U,54650,999,17107,-.17250842E-3,-.58E-6,0
ONEWEB-0584,2022-166K,2026-06-13T21:47:51.199008,13.21825213,.00021278,87.9251,244.6354,96.2195,263.9181,0,U,54651,999,17108,-.15195851E-3,-.5E-6,0
ONEWEB-0585,2022-166L,2026-06-13T22:21:46.958400,13.21826482,.00019996,87.9256,244.6177,103.2992,256.8365,0,U,54652,999,17109,.14769753E-3,.74E-6,0
ONEWEB-0586,2022-166M,2026-06-13T17:14:07.517184,13.21823888,.00020113,87.9255,244.6857,94.1045,266.0319,0,U,54653,999,17106,-.794631E-6,.13E-6,0
ONEWEB-0587,2022-166N,2026-06-13T17:28:39.449568,13.21823975,.00019944,87.9265,244.6569,109.1002,251.0348,0,U,54654,999,17122,-.53075873E-4,-.9E-7,0
ONEWEB-0589,2022-166P,2026-06-13T22:36:17.538624,13.21823796,.00025141,87.9252,244.6272,80.6189,279.5229,0,U,54655,999,17111,.40645121E-4,.3E-6,0
ONEWEB-0590,2022-166Q,2026-06-13T17:45:26.238528,13.21826686,.00024883,87.9262,244.6571,101.8400,258.3013,0,U,54656,999,17107,-.17337482E-3,-.59E-6,0
ONEWEB-0591,2022-166R,2026-06-13T18:02:36.083328,13.21826357,.00020879,87.9253,244.6696,98.6862,261.4508,0,U,54657,999,17110,-.1898915E-3,-.65E-6,0
ONEWEB-0592,2022-166S,2026-06-13T18:07:25.787712,13.21827029,.00020259,87.9262,244.6469,98.1258,262.0106,0,U,54658,999,17098,-.22671644E-3,-.81E-6,0
ONEWEB-0593,2022-166T,2026-06-13T22:16:54.297408,13.21825965,.00019263,87.9254,244.6242,94.4930,265.6424,0,U,54659,999,17111,-.5095885E-3,-.197E-5,0
ONEWEB-0594,2022-166U,2026-06-13T17:18:59.583744,13.21820734,.00019163,87.9255,244.6819,102.3595,257.7753,0,U,54660,999,17110,.25765934E-2,.1077E-4,0
ONEWEB-0595,2022-166V,2026-06-13T22:12:04.522176,13.21827032,.00020937,87.9262,244.6217,105.6933,254.4432,0,U,54661,999,17110,-.13190511E-4,.8E-7,0
ONEWEB-0596,2022-166W,2026-06-13T17:57:45.002592,13.21826407,.00020415,87.9256,244.6685,101.7946,258.3417,0,U,54662,999,17108,-.19487392E-3,-.67E-6,0
